INTELSAT 33E (IS-33E)   
1 41748U 16053B   17323.19212567  .00000049  00000-0  00000+0 0  9990
2 41748   0.0422  52.8496 0001909 190.6492 304.1051  1.00272830  4818
INSAT-3DR               
1 41752U 16054A   17322.63373765 -.00000077  00000-0  00000+0 0  9994
2 41752   0.0642 275.3682 0008949 355.1400  89.4160  1.00273394  4409
GSAT-18                 
1 41793U 16060A   17322.63401562 -.00000077  00000-0  00000+0 0  9993
2 41793   0.0315 279.9004 0004184 189.0367 251.1352  1.00272101  4138
SKY MUSTER 2            
1 41794U 16060B   17322.43760576 -.00000245  00000-0  00000+0 0  9992
2 41794   0.0115 283.8736 0001313 310.8824 125.2583  1.00273296  4162
HIMAWARI-9              
1 41836U 16064A   17323.44601488 -.00000273  00000-0  00000+0 0  9992
2 41836   0.0644  91.5194 0000890 126.1822 142.3195  1.00273906  3901
SHIJIAN-17 (SJ-17)      
1 41838U 16065A   17322.96664075 -.00000362  00000-0  00000-0 0  9992
2 41838   0.2985  98.0364 0001168 276.8005 149.4557  1.00268419  3823
GOES 16                 
1 41866U 16071A   17323.08604609 -.00000183  00000-0  00000+0 0  9991
2 41866   0.0051  39.1122 0001174 251.6583  69.2440  1.00272987  3705
TIANLIAN 1-04           
1 41869U 16072A   17322.97386507 -.00000106  00000-0  00000-0 0  9992
2 41869   2.3377 288.7619 0008600 162.4153  34.5376  1.00270629  3906
FENGYUN 4A              
1 41882U 16077A   17322.96680083 -.00000329  00000-0  00000-0 0  9994
2 41882   0.1247 282.8392 0006904 192.9319  35.1017  1.00267575  3571
ECHOSTAR 19             
1 41893U 16079A   17323.10772088 -.00000138  00000-0  00000+0 0  9999
2 41893   0.0172 299.4894 0001167 297.6638 122.8356  1.00270433  3334
STAR ONE D1             
1 41904U 16082B   17323.07135666 -.00000210  00000-0  00000+0 0  9998
2 41904   0.0658  96.8822 0002586 149.5629 113.5547  1.00271367  3388
TJS-2                   
1 41911U 17001A   17322.84186169 -.00000343  00000-0  00000-0 0  9994
2 41911   0.3503 278.4523 0002360  58.0587 132.1984  1.00272295  3328
HISPASAT 36W-1          
1 41942U 17006A   17321.94123255 -.00000247  00000-0  00000+0 0  9992
2 41942   0.0121  46.5223 0000904 182.3436 131.1263  1.00270508  3113
TELKOM 3S               
1 41944U 17007A   17322.51181253 -.00000363  00000-0  00000+0 0  9990
2 41944   0.0118 286.6268 0002265 323.5750 109.7738  1.00268039  2806
INTELSAT 32E (IS-32E)   
1 41945U 17007B   17322.95835638 -.00000269  00000-0  00000+0 0  9997
2 41945   0.0199 295.8472 0001656 238.4022 185.7526  1.00271796  2841
ECHOSTAR 23             
1 42070U 17014A   17321.96579510 -.00000275  00000-0  00000-0 0  9997
2 42070   0.0223 286.2624 0002275 309.3308 124.3853  1.00271951  2536
SES-10                  
1 42432U 17017A   17323.02398460 -.00000272  00000-0  00000+0 0  9990
2 42432   0.0141 334.3097 0002428 270.1852 115.5070  1.00272712  2376
CHINASAT 16 (SJ-13)     
1 42662U 17018A   17322.53235296 -.00000353  00000-0  00000-0 0  9999
2 42662   0.0745  96.7659 0007531 144.1509 119.0339  1.00270828  2321
KOREASAT 7              
1 42691U 17023A   17322.51762001 -.00000362  00000-0  00000+0 0  9993
2 42691   0.0164  47.7597 0001851 160.6589 151.5978  1.00272349  2033
SGDC                    
1 42692U 17023B   17322.04876205 -.00000252  00000-0  00000+0 0  9992
2 42692   0.0470  84.7883 0002547 153.8504 121.3624  1.00273845  2032
GSAT-9                  
1 42695U 17024A   17322.56899876 -.00000288  00000-0  00000-0 0  9992
2 42695   0.0450 270.7585 0001864 339.0370 110.2112  1.00273505  1995
INMARSAT 5-F4           
1 42698U 17025A   17323.57523552 -.00000331  00000-0  00000+0 0  9991
2 42698   0.0125 322.0969 0000523  19.2794  18.6217  1.00948852  1870
EUTELSAT 172B           
1 42741U 17029B   17323.35828360 -.00000060  00000-0  00000+0 0  9994
2 42741   0.0355  57.4019 0000940 199.7070 102.9079  0.99979944  2296
GSAT-19                 
1 42747U 17031A   17322.61002463 -.00000161  00000-0  00000+0 0  9991
2 42747   0.0872 100.9017 0003006 127.0233 132.0759  1.00273313  1736
ECHOSTAR 21             
1 42749U 17032A   17322.69582027  .00000054  00000-0  00000+0 0  9991
2 42749   7.2343 318.8045 0002797 245.0988 114.7880  1.00272660  1719
CHINASAT 9A (ZX 9A)     
1 42763U 17035A   17321.02480041 -.00000316  00000-0  00000+0 0  9991
2 42763   0.0051 133.0901 0001460  67.2440 326.2513  1.00266940  2227
BULGARIASAT-1           
1 42801U 17038A   17322.83337691  .00000011  00000-0  00000-0 0  9991
2 42801   0.0249 300.7003 0002645 299.9409 119.3593  1.00270466  1428
HELLAS-SAT 3            
1 42814U 17040A   17322.73067985  .00000152  00000-0  00000+0 0  9998
2 42814   0.0901  75.1016 0001242 231.5823  53.3314  1.00274456  1485
GSAT-17                 
1 42815U 17040B   17322.57952422 -.00000258  00000-0  00000-0 0  9999
2 42815   0.0687 104.4146 0007481 148.5854 106.9444  1.00270793  1433
INTELSAT 35E (IS-35E)   
1 42818U 17041A   17322.93423289 -.00000238  00000-0  00000+0 0  9994
2 42818   0.0147 282.7126 0001866 316.8772 120.4187  1.00271787  1434
COSMOS 2520             
1 42907U 17046A   17320.22202185  .00000130  00000-0  00000-0 0  9999
2 42907   0.0645  83.4423 0002023 251.5649 205.4442  1.00274591   956
TDRS 13                 
1 42915U 17047A   17322.17923204  .00000112  00000-0  00000-0 0  9997
2 42915   6.9142 332.2552 0007361 326.9960  32.8525  1.00277912   935
QZS-3                   
1 42917U 17048A   17322.48674984 -.00000349  00000-0  00000-0 0  9995
2 42917   0.0452 221.1940 0002489  30.2420 108.5635  1.00273890   849
AMAZONAS 5              
1 42934U 17053A   17322.53174205 -.00000283  00000-0  00000+0 0  9993
2 42934   0.0174 322.2831 0003347 300.9740 284.9519  1.00270765   711
ASIASAT 9               
1 42942U 17057A   17323.45072038 -.00000358  00000-0  00000+0 0  9992
2 42942   0.0594  80.0459 0000579   7.2584 255.7598  1.00268748   539
INTELSAT 37E (IS-37E)   
1 42950U 17059A   17322.43518262 -.00000180  00000-0  00000-0 0  9998
2 42950   0.0115 177.8120 0001042  80.1374  40.9123  1.00269110   633
BSAT-4A                 
1 42951U 17059B   17323.41222788 -.00000348  00000-0  00000+0 0  9998
2 42951   0.0113 101.8367 0001029 279.6352 295.2956  1.00269024   541
SES-11 (ECHOSTAR 105)   
1 42967U 17063A   17322.55584304 -.00000156  00000-0  00000-0 0  9997
2 42967   0.0399 248.3429 0000557   0.9448 258.8617  1.00977307   400
